[{"OBJECT_NAME":"STARLINK-34953","OBJECT_ID":"2025-179F","EPOCH":"2026-03-09T16:06:19.749888","MEAN_MOTION":15.05652216,"ECCENTRICITY":3.804e-5,"INCLINATION":97.6035,"RA_OF_ASC_NODE":112.9156,"ARG_OF_PERICENTER":88.9629,"MEAN_ANOMALY":271.1642,"EPHEMERIS_TYPE":0,"CLASSIFICATION_TYPE":"U","NORAD_CAT_ID":65240,"ELEMENT_SET_NO":999,"REV_AT_EPOCH":3197,"BSTAR":0.00026878177,"MEAN_MOTION_DOT":3.82e-5,"MEAN_MOTION_DDOT":0},{"OBJECT_NAME":"COSMOS 2251 DEB","OBJECT_ID":"1993-036AL","EPOCH":"2026-03-09T15:08:47.217120","MEAN_MOTION":15.1034549,"ECCENTRICITY":0.0030621,"INCLINATION":74.0303,"RA_OF_ASC_NODE":257.926,"ARG_OF_PERICENTER":317.2462,"MEAN_ANOMALY":110.0671,"EPHEMERIS_TYPE":0,"CLASSIFICATION_TYPE":"U","NORAD_CAT_ID":33795,"ELEMENT_SET_NO":999,"REV_AT_EPOCH":91331,"BSTAR":0.001367,"MEAN_MOTION_DOT":0.00022707,"MEAN_MOTION_DDOT":0}]
